ONEWEB-0531             
1 54146U 22138AK  24123.55872645  .00000142  00000+0  31685-3 0  9992
2 54146  87.9200  68.7599 0003129  77.5665 282.5819 13.20770377 76929
ONEWEB-0535             
1 54147U 22138AL  24123.39769747  .00000058  00000+0  11290-3 0  9999
2 54147  87.9107  99.3613 0002175  79.7583 280.3795 13.19724693 74516
ONEWEB-0536             
1 54148U 22138AM  24123.84913410 -.00000019  00000+0 -78363-4 0  9992
2 54148  87.9201  68.7514 0002842  65.3345 294.8084 13.20770451 77823
ONEWEB-0527             
1 54642U 22166A   24123.73736273 -.00000008  00000+0 -50669-4 0  9997
2 54642  87.9318  38.3437 0002032  82.6866 277.4499 13.21824181 69547
ONEWEB-0528             
1 54643U 22166B   24123.51657791 -.00000123  00000+0 -32828-3 0  9995
2 54643  87.9323  38.3726 0001865  85.8050 274.3297 13.21824145 69078
ONEWEB-0539             
1 54644U 22166C   24123.77993596  .00000066  00000+0  12925-3 0  9990
2 54644  87.9325  38.3223 0001776  74.9618 285.1713 13.21824664 69555
ONEWEB-0540             
1 54645U 22166D   24123.47163917  .00000077  00000+0  15435-3 0  9995
2 54645  87.9317  38.4044 0001647  75.6158 284.5159 13.21824747 69529
ONEWEB-0542             
1 54646U 22166E   24123.48660721  .00000043  00000+0  71754-4 0  9992
2 54646  87.9324  38.3803 0001799  64.8134 295.3186 13.21823495 69060
